latitude,longitude,OBJECTID,NAME,ADDRESS,CLASS,PERMIT_HRS,SURFACE,ABBREV,ACCESSIBLE,MOTORCYCLE,PERMIT,TWOH_FREE,HOURLY,RESERVED,DESCR,CAPACITY,AREA_M,CreationDate,Creator,EditDate,Editor
43.463246,-80.52015,8,City Centre Lot,100 REGINA ST S,2 Hour Free Parking,,PAVED,CC,Y,N,N,Y,N,N,2 Hour Free Parking Mon-Fri 8am-5pm,,1538.415087,2015-09-23T15:33:13.915Z,OpenData_Waterloo,2015-09-23T15:33:13.915Z,OpenData_Waterloo
43.463246,-80.52015,10,City Centre Lot (Reserved),100 REGINA ST S,Reserved Parking,,PAVED,CC,Y,N,Y,N,N,Y,Permit Parking Mon-Fri 8am-5pm,,3436.819651,2015-09-23T15:33:13.915Z,OpenData_Waterloo,2015-09-23T15:33:13.915Z,OpenData_Waterloo
43.464635,-80.520634,19,Station Lot (2h Free Parking),20 REGINA ST S,Permit Parking and 2 Hour Free Parking,,PAVED,S,Y,N,Y,Y,N,N,2 Hour Free Parking Mon-Fri 8am-5pm;  Overnight Parking Permitted in Park It and Leave It Spaces Only,95 Permit and Two-Hour No Charge,1520.531852,2015-09-23T15:33:13.915Z,OpenData_Waterloo,2015-09-23T15:33:13.915Z,OpenData_Waterloo
43.464635,-80.520634,20,Station Lot (Permit),20 REGINA ST S,Permit Parking and 2 Hour Free Parking,,PAVED,S,Y,N,Y,N,N,N,Permit Parking Mon-Fri 8am-5pm,95 Permit and Two-Hour No Charge,353.0700498,2015-09-23T15:33:13.915Z,OpenData_Waterloo,2015-09-23T15:33:13.915Z,OpenData_Waterloo
43.464635,-80.520634,21,Station Lot (Paul Puncher),20 REGINA ST S,Permit Parking and 2 Hour Free Parking,,PAVED,S,Y,N,Y,N,N,N,Paul Puncher Permit Parking Mon-Fri 8am-6pm,95 Permit and Two-Hour No Charge,671.5452991,2015-09-23T15:33:13.915Z,OpenData_Waterloo,2015-09-23T15:33:13.915Z,OpenData_Waterloo
43.464635,-80.520634,22,Station Lot,20 REGINA ST S,Permit Parking and 2 Hour Free Parking,,PAVED,S,Y,N,Y,Y,N,N,"2 Hour Free Parking Mon-Fri 8am-5pm; ""S"" Permit",95 Permit and Two-Hour No Charge,910.7877298,2015-09-23T15:33:13.915Z,OpenData_Waterloo,2015-09-23T15:33:13.915Z,OpenData_Waterloo
43.464747,-80.517774,17,Willow Lot,21 WILLOW ST,Permit Parking,,PAVED,WL,N,N,Y,N,N,N,Permit Parking Mon-Fri 8am-5pm,14 Permit,408.2694421,2015-09-23T15:33:13.915Z,OpenData_Waterloo,2015-09-23T15:33:13.915Z,OpenData_Waterloo
43.463048,-80.5198255,15,William Lot,29 WILLIAM ST E,Permit Parking,,PAVED,W,N,Y,Y,N,N,N,Permit Parking Mon-Fri 8am-5pm,30 Permit,849.3939549,2015-09-23T15:33:13.915Z,OpenData_Waterloo,2015-09-23T15:33:13.915Z,OpenData_Waterloo
43.4636901,-80.5206965,3,Regina Lot (Motorcycle Parking),30 REGINA ST S,Motorcycle Parking,,PAVED,R,Y,N,Y,N,N,N,Motorcycle Permit Parking Mon-Fri 8am-6pm,,30.23898261,2015-09-23T15:33:13.915Z,OpenData_Waterloo,2015-09-23T15:33:13.915Z,OpenData_Waterloo
43.4636901,-80.5206965,27,Regina Lot,30 REGINA ST S,Permit Parking,,PAVED,R,Y,N,Y,N,N,N,Permit Parking Mon-Fri 8am-6pm,121 Permit,3420.058108,2015-09-23T15:33:13.915Z,OpenData_Waterloo,2015-09-23T15:33:13.915Z,OpenData_Waterloo
43.465426,-80.528111,2,Perimeter Lot (2h Free Parking),31 CAROLINE ST N,2 Hour Free Parking,,PAVED,PI,Y,Y,N,Y,N,N,2 Hour Free Parking Mon-Fri 8am-5pm,,404.3666159,2015-09-23T15:33:13.915Z,OpenData_Waterloo,2015-09-23T15:33:13.915Z,OpenData_Waterloo
43.465426,-80.528111,5,Clay & Glass Gallery,31 CAROLINE ST N,2 Hour Free Parking,,PAVED,PI,Y,Y,N,Y,N,N,2 Hour Free Parking Mon-Fri 8am-5pm,,156.597602,2015-09-23T15:33:13.915Z,OpenData_Waterloo,2015-09-23T15:33:13.915Z,OpenData_Waterloo
43.465426,-80.528111,7,Perimeter Lot,31 CAROLINE ST N,Permit Parking,,PAVED,PI,Y,Y,Y,N,N,N,Permit Parking Mon-Fri 8am-5pm,,3316.082768,2015-09-23T15:33:13.915Z,OpenData_Waterloo,2015-09-23T15:33:13.915Z,OpenData_Waterloo
43.4660993,-80.52436139999999,12,Dupont Lot,35 ALBERT ST,Permit Parking,,PAVED,D,Y,N,Y,N,N,N,Permit Parking Mon-Fri 9am-5pm,118 Permit and Pay and Display (combined with adjacent lot),2651.306898,2015-09-23T15:33:13.915Z,OpenData_Waterloo,2015-09-23T15:33:13.915Z,OpenData_Waterloo
43.4660993,-80.52436139999999,13,Dupont Lot (Pay and Display),35 ALBERT ST,Paid Hourly Parking,,PAVED,D,Y,N,N,N,N,N,Pay & Display Machine  Mon-Sat 9am-9pm $2.50/hr,118 Permit and Pay and Display (combined with adjacent lot),1704.182714,2015-09-23T15:33:13.915Z,OpenData_Waterloo,2015-09-23T15:33:13.915Z,OpenData_Waterloo
43.4660993,-80.52436139999999,14,Library Lot,35 ALBERT ST,Permit Parking and Paid Hourly Parking,,PAVED,L,Y,N,Y,N,Y,N,Permit Parking Mon-Fri 9am-5pm; Pay & Display Machine Mon-Sat 9am-9pm $2.50/hr,30 Permit,920.9113886,2015-09-23T15:33:13.915Z,OpenData_Waterloo,2015-09-23T15:33:13.915Z,OpenData_Waterloo
43.4631352,-80.51972909999999,16,Herbert Lot,35 WILLIAM ST E,Permit Parking,,PAVED,H,N,N,Y,N,N,N,Permit Parking Mon-Fri 8am-5pm,12 Permit,403.1336829,2015-09-23T15:33:13.915Z,OpenData_Waterloo,2015-09-23T15:33:13.915Z,OpenData_Waterloo
43.4627719,-80.5238298,6,Caroline North Lot,41 CAROLINE ST S,Permit Parking,,PAVED,CN,N,Y,Y,N,N,N,Permit Parking Mon-Fri 8am-6pm; Overnight Permits; 24h Permits,101 Permit,3211.268502,2015-09-23T15:33:13.915Z,OpenData_Waterloo,2015-09-23T15:33:13.915Z,OpenData_Waterloo
43.4646816,-80.5244649,23,Waterloo Town Square (North),45 ERB ST W,2 Hour Free Parking,,PAVED,WTSN,Y,N,N,Y,N,N,2 Hour Free Parking Mon-Fri 8am-6pm,270 Two-Hour No Charge,9532.751443,2015-09-23T15:33:13.915Z,OpenData_Waterloo,2015-09-23T15:33:13.915Z,OpenData_Waterloo
43.4615263,-80.52277529999999,24,Waterloo Town Square (South) (Agreement),70 CAROLINE ST S,2 Hour Free Parking,,PAVED,WTSS,Y,Y,N,Y,N,N,2 Hour Free Parking Mon-Fri 8am-6pm,324 Two-Hour No Charge and Permit,2739.433418,2015-09-23T15:33:13.915Z,OpenData_Waterloo,2015-09-23T15:33:13.915Z,OpenData_Waterloo
43.4615263,-80.52277529999999,25,Waterloo Town Square (South),70 CAROLINE ST S,Permit Parking,,PAVED,WTSS,Y,Y,Y,N,N,N,Permit Parking Mon-Fri 8am-6pm,324 Two-Hour No Charge and Permit,1385.579056,2015-09-23T15:33:13.915Z,OpenData_Waterloo,2015-09-23T15:33:13.915Z,OpenData_Waterloo
43.4615263,-80.52277529999999,26,Waterloo Town Square (South) (Free Parking),70 CAROLINE ST S,2 Hour Free Parking,,PAVED,WTSS,Y,Y,N,Y,N,N,2 Hour Free Parking Mon-Fri 8am-6pm,324 Two-Hour No Charge and Permit,7976.829036,2015-09-23T15:33:13.915Z,OpenData_Waterloo,2015-09-23T15:33:13.915Z,OpenData_Waterloo
43.461695,-80.52354199999999,1,Caroline South Lot (Motorcycle Parking),71 CAROLINE ST S,Motorcycle Parking,,PAVED,CS,N,Y,N,N,N,N,No Permit Required,,78.66704052,2015-09-23T15:33:13.915Z,OpenData_Waterloo,2015-09-23T15:33:13.915Z,OpenData_Waterloo
43.461695,-80.52354199999999,9,Caroline South Lot,71 CAROLINE ST S,Permit Parking,,PAVED,CS,N,N,Y,N,N,N,Permit Parking Mon-Fri 8am-6pm,96 Permit,3038.196028,2015-09-23T15:33:13.915Z,OpenData_Waterloo,2015-09-23T15:33:13.915Z,OpenData_Waterloo
43.4635884,-80.5375911,18,Bauer Lot,80 FATHER DAVID BAUER DR,Permit Parking,,UNPAVED,B,N,N,Y,N,N,N,Permit Parking Mon-Fri 8am-5pm,180 Permit,3367.078759,2015-09-23T15:33:13.915Z,OpenData_Waterloo,2015-09-23T15:33:13.915Z,OpenData_Waterloo
43.4638419,-80.52650229999999,28,Museum Lot,82 ERB ST,Permit Parking and 2 Hour Free Parking,,PAVED,M,Y,N,Y,N,N,N,Permit Parking Mon-Fri 8am-6pm,81 Permit and Two-Hour No Charge,1660.168494,2015-09-23T15:33:13.915Z,OpenData_Waterloo,2015-09-23T15:33:13.915Z,OpenData_Waterloo
43.4638419,-80.52650229999999,29,Museum Lot (2h Free Parking),82 ERB ST,Permit Parking and 2 Hour Free Parking,,PAVED,M,Y,N,N,Y,N,N,2 Hour Free Parking Mon-Fri 8am-6pm,81 Permit and Two-Hour No Charge,1386.027318,2015-09-23T15:33:13.915Z,OpenData_Waterloo,2015-09-23T15:33:13.915Z,OpenData_Waterloo
43.461331,-80.52291799999999,4,Alexandra Lot,87 CAROLINE ST S,Permit Parking,,PAVED,A,N,N,Y,N,N,N,Permit Parking Mon-Fri 8am-6pm; Overnight Permits March-November Only,16 Permit,471.3659026,2015-09-23T15:33:13.915Z,OpenData_Waterloo,2015-09-23T15:33:13.915Z,OpenData_Waterloo
,,11,Temporary Lot A,,2 Hour Free Parking,,Asphalt,TA,Y,N,N,Y,N,N,2 Hour Free Parking Mon-Fri 8am-6pm,,1944.620327,2015-09-23T15:33:13.915Z,OpenData_Waterloo,2015-09-23T15:33:13.915Z,OpenData_Waterloo
,,30,Temporary Parking Lot B,,2 Hour Free Parking,,UNPAVED,TB,N,N,N,Y,N,N,2 Hour Free Parking Mon-Fri 8am-6pm,,883.6384306,2015-09-23T15:33:13.915Z,OpenData_Waterloo,2015-09-23T15:33:13.915Z,OpenData_Waterloo
